STARLINK-31263          
1 58832U 24017G   26068.56471213 -.00000280  00000+0  26592-5 0  9990
2 58832  53.1593 194.4870 0000965  55.7010 304.4082 15.30192685120290
TEVEL2-6                
1 63215U 25052F   26068.64958975  .00021046  00000+0  70909-3 0  9996
2 63215  97.4016 325.0381 0004769  95.6604 264.5181 15.30760889 54861
